ONEWEB-0015             
1 61594U 24188A   26023.49819153 -.00000008  00000+0 -58194-4 0  9991
2 61594  87.8818  49.8964 0002380  86.4442 273.6959 13.11418231 65498
ONEWEB-0687             
1 61595U 24188B   26023.49643733  .00000071  00000+0  15004-3 0  9991
2 61595  87.9073  34.6448 0002393  96.3625 263.7779 13.17650791 66844
ONEWEB-0688             
1 61596U 24188C   26023.44917969  .00000013  00000+0 -23909-6 0  9995
2 61596  87.9071  34.6538 0003053  78.8514 281.2960 13.17650832 66831
ONEWEB-0689             
1 61597U 24188D   26023.45580293  .00000203  00000+0  53754-3 0  9991
2 61597  87.8820  49.8392 0002020 102.6355 257.4999 13.11416408 65481
ONEWEB-0690             
1 61598U 24188E   26023.54227561 -.00000244  00000+0 -72513-3 0  9999
2 61598  87.8829  49.8419 0001379  74.0159 286.1121 13.11415785 65675
ONEWEB-0691             
1 61599U 24188F   26023.53719414  .00000014  00000+0  26839-5 0  9997
2 61599  87.8835  49.7410 0002264  90.0061 270.1327 13.11415746 65529
ONEWEB-0692             
1 61600U 24188G   26023.48122579 -.00000499  00000+0 -14440-2 0  9995
2 61600  87.8816  49.8932 0001564 124.5488 235.5788 13.11418057 65501
ONEWEB-0693             
1 61601U 24188H   26023.08132327  .00000040  00000+0  70409-4 0  9993
2 61601  87.9074  34.7485 0001673  63.5133 296.6170 13.17647928 66775
ONEWEB-0695             
1 61602U 24188J   26023.45750479  .00000092  00000+0  22340-3 0  9996
2 61602  87.8816  49.8878 0001940 111.3429 248.7907 13.11415860 65495
ONEWEB-0697             
1 61603U 24188K   26023.48970685 -.00000307  00000+0 -90314-3 0  9990
2 61603  87.8817  49.8707 0001484 119.4178 240.7098 13.11419623 65484
ONEWEB-0698             
1 61604U 24188L   26023.46767184 -.00000336  00000+0 -98506-3 0  9990
2 61604  87.8812  49.8908 0000641 109.5386 250.5811 13.11416763 65505
ONEWEB-0699             
1 61605U 24188M   26023.51803915 -.00000579  00000+0 -16960-2 0  9992
2 61605  87.8773  65.0971 0001467 118.2265 241.9011 13.10372138 64367
ONEWEB-0700             
1 61606U 24188N   26023.51969691 -.00000646  00000+0 -18864-2 0  9997
2 61606  87.8785  64.9862 0002112 118.0809 242.0532 13.10373298 64355
ONEWEB-0701             
1 61607U 24188P   26023.38358930 -.00000167  00000+0 -51433-3 0  9999
2 61607  87.8776  65.1237 0001445 124.1653 235.9612 13.10376792 64349
ONEWEB-0702             
1 61608U 24188Q   26023.51345723  .00000494  00000+0  13593-2 0  9996
2 61608  87.8815  49.7631 0001760 128.1062 232.0225 13.11416199 65524
ONEWEB-0704             
1 61609U 24188R   26023.37196031 -.00000562  00000+0 -16452-2 0  9992
2 61609  87.8787  65.0971 0001920 126.9398 233.1906 13.10374680 64329
ONEWEB-0705             
1 61610U 24188S   26023.37694977 -.00000443  00000+0 -13051-2 0  9996
2 61610  87.8776  65.1138 0002828 114.0366 246.1057 13.10375544 56496
ONEWEB-0706             
1 61611U 24188T   26023.51472055 -.00000534  00000+0 -15650-2 0  9992
2 61611  87.8762  65.1027 0002055 116.9711 243.1627 13.10371664 64438
ONEWEB-0707             
1 61612U 24188U   26023.52135997 -.00000615  00000+0 -17993-2 0  9997
2 61612  87.8776  65.0841 0001948 116.4640 243.6688 13.10373631 64374
ONEWEB-0708             
1 61613U 24188V   26023.53962762 -.00000133  00000+0 -41771-3 0  9994
2 61613  87.8771  65.1118 0002427  99.9546 260.1855 13.10377648 64351
TIANPING 3A-01          
1 61614U 24189A   26023.58662568  .00006008  00000+0  47483-3 0  9993
2 61614  97.5414  48.2434 0001883 111.6862 248.4563 15.01020740 68792
YAOGAN-43 03A           
1 61617U 24190A   26023.37729211  .00013759  00000+0  56863-3 0  9997
2 61617  34.9913  28.5250 0004082 106.6476 253.4687 15.23171298 69771
YAOGAN-43 03B           
1 61618U 24190B   26023.70636580  .00013667  00000+0  56942-3 0  9997
2 61618  34.9891  26.3777 0006820 154.6026 205.5024 15.22885978 69828
YAOGAN-43 03C           
1 61619U 24190C   26023.38511972  .00005480  00000+0  22868-3 0  9993
2 61619  34.9969  28.7876 0005671 125.3820 234.7425 15.23010707 69731
STARLINK-32302          
1 61621U 24191A   26023.40445711  .00002403  00000+0  96853-4 0  9995
2 61621  43.0044  49.9918 0002043 263.4958  96.5661 15.27577169 71369
STARLINK-32364          
1 61622U 24191B   26023.08779785  .00000962  00000+0  44476-4 0  9993
2 61622  43.0016  51.9145 0001063 295.3000  64.7742 15.27590506 70565
STARLINK-32331          
1 61623U 24191C   26023.49248639 -.00005588  00000+0 -19344-3 0  9994
2 61623  43.0026  53.2575 0001169 300.8693  59.2044 15.27622970 70583
STARLINK-32398          
1 61624U 24191D   26023.42629590  .00005931  00000+0  22483-3 0  9995
2 61624  42.9954  50.1575 0000180  36.2973 323.7891 15.27582703 70613
STARLINK-32365          
1 61625U 24191E   26023.40702240  .00007115  00000+0  26780-3 0  9998
2 61625  43.0006  50.0098 0001168 285.1086  74.9637 15.27584451 70615
STARLINK-32333          
1 61626U 24191F   26023.43866680  .00001295  00000+0  56572-4 0  9997
2 61626  43.0001  53.7157 0001833 266.5347  93.5295 15.27596277 70570
STARLINK-32399          
1 61627U 24191G   26023.32076684  .00009174  00000+0  34225-3 0  9997
2 61627  42.9988  43.2892 0001316 232.5648 127.5084 15.27601671 70687
STARLINK-32421          
1 61628U 24191H   26023.43274047 -.00003107  00000+0 -10355-3 0  9993
2 61628  42.9970  50.2034 0000833 305.1270  54.9503 15.27547507 70615
STARLINK-32403          
1 61629U 24191J   26023.35705748  .00004080  00000+0  15766-3 0  9992
2 61629  43.0004  50.4954 0002254 279.2367  80.8229 15.27587702 70609
STARLINK-32390          
1 61630U 24191K   26023.44043639  .00002040  00000+0  83638-4 0  9996
2 61630  43.0038  50.2610 0001778 298.6412  61.4261 15.27577384 70618
STARLINK-32348          
1 61631U 24191L   26023.49634340  .00003914  00000+0  15163-3 0  9995
2 61631  43.0021  53.2869 0002448 284.5386  75.5194 15.27589604 70584
STARLINK-32455          
1 61632U 24191M   26023.38098724  .00002543  00000+0  10190-3 0  9996
2 61632  43.0029  54.1440 0001382 277.3566  82.7128 15.27577220 70560
STARLINK-32396          
1 61633U 24191N   26023.50019825 -.00000966  00000+0 -25579-4 0  9993
2 61633  42.9981  53.3161 0001351 266.0199  94.0498 15.27571668 70588
STARLINK-32355          
1 61634U 24191P   26023.44893863  .00023320  00000+0  85320-3 0  9995
2 61634  43.0046  53.7933 0001747 253.4372 106.6288 15.27620733 70570
STARLINK-32370          
1 61635U 24191Q   26023.33520173  .00004990  00000+0  19060-3 0  9995
2 61635  43.0028  50.3288 0001135 267.3795  92.6927 15.27601696 70606
STARLINK-32405          
1 61636U 24191R   26023.38742409  .00001478  00000+0  63251-4 0  9999
2 61636  43.0022  54.1886 0001494 290.2413  69.8278 15.27570008 70569
STARLINK-32419          
1 61637U 24191S   26023.43657575  .00004733  00000+0  18144-3 0  9992
2 61637  43.0025  50.2341 0001416 182.3816 177.7030 15.27574849 70616
STARLINK-32320          
1 61638U 24191T   26023.45665423  .00000820  00000+0  39316-4 0  9994
2 61638  43.0035  53.8476 0000843 280.9611  79.1146 15.27582377 70570
STARLINK-32341          
1 61639U 24191U   26023.49424984  .00000646  00000+0  32989-4 0  9999
2 61639  43.0038  49.8026 0002037 271.2257  88.8361 15.27587744 70621
STARLINK-32339          
1 61640U 24191V   26023.46212975  .00002112  00000+0  86258-4 0  9991
2 61640  43.0057  49.5633 0002529 291.0157  69.0424 15.27580044 70616
STARLINK-32327          
1 61641U 24191W   26023.41087680  .00001687  00000+0  70819-4 0  9992
2 61641  43.0029  50.0341 0002654 285.6352  74.4206 15.27580656 70611
STARLINK-32264          
1 61642U 24191X   26023.50792802  .00001296  00000+0  56650-4 0  9995
2 61642  43.0016  53.3743 0002634 288.6396  71.4169 15.27562764 70580
STARLINK-32337          
1 61643U 24191Y   26023.35320818  .00003166  00000+0  12452-3 0  9992
2 61643  43.0010  50.4611 0002359 269.4271  90.6310 15.27578844 71364
STARLINK-32238          
1 61661U 24193A   26023.48986171  .00003556  00000+0  13220-3 0  9995
2 61661  53.1621 301.1522 0001443  57.0306 303.0833 15.30185345 69603
STARLINK-32310          
1 61662U 24193B   26023.46979866  .00006284  00000+0  22405-3 0  9993
2 61662  53.1612 301.0258 0001523  85.8677 274.2498 15.30210032 69606
STARLINK-32308          
1 61663U 24193C   26023.18321348  .00005087  00000+0  18371-3 0  9996
2 61663  53.1603 302.0769 0001368  82.8018 277.3139 15.30205538 69564
STARLINK-32301          
1 61664U 24193D   26023.49722466  .00022735  00000+0  77585-3 0  9998
2 61664  53.1617 301.1929 0001934  81.0600 279.0620 15.30262879 69605
STARLINK-32439          
1 61665U 24193E   26023.50252084  .00007423  00000+0  26243-3 0  9997
2 61665  53.1596 301.2258 0001209  77.4612 282.6524 15.30208781 69600
STARLINK-32428          
1 61666U 24193F   26023.26226185  .00004607  00000+0  16758-3 0  9995
2 61666  53.1581 301.8637 0001386  80.1149 280.0008 15.30200058 69578
STARLINK-32414          
1 61667U 24193G   26023.49090177  .00005469  00000+0  19653-3 0  9995
2 61667  53.1637 301.1545 0001217  78.5668 281.5469 15.30216366 69602
STARLINK-32441          
1 61668U 24193H   26023.15590732  .00009072  00000+0  31808-3 0  9991
2 61668  53.1601 302.6202 0001510  77.5248 282.5921 15.30197551 69551
STARLINK-32400          
1 61669U 24193J   26023.46397967  .00006941  00000+0  24616-3 0  9992
2 61669  53.1602 298.8611 0001144 101.2556 258.8574 15.30213631 69630
STARLINK-32449          
1 61670U 24193K   26023.47614232  .00012201  00000+0  42309-3 0  9997
2 61670  53.1595 301.0654 0001043  86.0710 274.0410 15.30222822 69605
STARLINK-32453          
1 61671U 24193L   26023.20222191  .00004449  00000+0  16221-3 0  9997
2 61671  53.1600 302.1990 0001219  51.0135 309.0974 15.30208876 69568
STARLINK-32443          
1 61672U 24193M   26023.06947858  .00003022  00000+0  11413-3 0  9990
2 61672  53.1602 302.7915 0001218  91.1380 268.9761 15.30200637 69542
